NORAD_CAT_ID,OBJECT_NAME,OBJECT_TYPE,EPOCH,MEAN_MOTION,ECCENTRICITY,INCLINATION,RA_OF_ASC_NODE,ARG_OF_PERICENTER,MEAN_ANOMALY,BSTAR,MEAN_MOTION_DOT,MEAN_MOTION_DDOT,TLE_LINE0,TLE_LINE1,TLE_LINE2,SEMIMAJOR_AXIS,PERIOD,APOGEE,PERIGEE,DECAYED
52456.0,STARLINK-3896,PAYLOAD,2023-02-15 16:45:27,15.08858946,0.0001209,53.2162,47.985,84.3057,275.8073,0.00078621,0.00012253,0.0,0 STARLINK-3896,1 52456U 22049F   23046.69823307  .00012253  00000-0  78621-3 0  9992,2 52456  53.2162  47.9850 0001209  84.3057 275.8073 15.08858946 43334,6917.822,95.436,540.524,538.851,0.0
52456.0,STARLINK-3896,PAYLOAD,2023-02-16 00:42:23,15.08840631,0.0001456,53.2179,46.5025,102.2033,257.9123,0.00043061,6.572e-05,0.0,0 STARLINK-3896,1 52456U 22049F   23047.02943507  .00006572  00000-0  43061-3 0  9992,2 52456  53.2179  46.5025 0001456 102.2033 257.9123 15.08840631 43541,6917.878,95.438,540.751,538.736,0.0
52456.0,STARLINK-3896,PAYLOAD,2023-02-16 10:14:41,15.08867762,0.0001126,53.2155,44.7163,94.8756,265.2365,0.0021641,0.00034348,0.0,0 STARLINK-3896,1 52456U 22049F   23047.42687075  .00034348  00000-0  21641-2 0  9992,2 52456  53.2155  44.7163 0001126  94.8756 265.2365 15.08867762 43601,6917.796,95.436,540.439,538.882,0.0
52456.0,STARLINK-3896,PAYLOAD,2023-02-16 16:36:14,15.08851029,0.0002222,53.2159,43.5246,76.3217,283.8022,0.0010885,0.00017083,0.0,0 STARLINK-3896,1 52456U 22049F   23047.69183729  .00017083  00000-0  10885-2 0  9993,2 52456  53.2159  43.5246 0002222  76.3217 283.8022 15.08851029 43480,6917.847,95.437,541.249,538.175,0.0
52456.0,STARLINK-3896,PAYLOAD,2023-02-17 00:33:10,15.08824886,0.0001375,53.2153,42.0392,82.6476,277.4672,0.00039378,5.982e-05,0.0,0 STARLINK-3896,1 52456U 22049F   23048.02304146  .00005982  00000-0  39378-3 0  9993,2 52456  53.2153  42.0392 0001375  82.6476 277.4672 15.08824886 43699,6917.927,95.439,540.743,538.84,0.0
52456.0,STARLINK-3896,PAYLOAD,2023-02-17 06:54:43,15.08828548,0.0001526,53.2158,40.8504,80.6609,279.4556,0.0014463,0.00022798,0.0,0 STARLINK-3896,1 52456U 22049F   23048.28800431  .00022798  00000-0  14463-2 0  9990,2 52456  53.2158  40.8504 0001526  80.6609 279.4556 15.08828548 43578,6917.915,95.438,540.836,538.725,0.0
52456.0,STARLINK-3896,PAYLOAD,2023-02-17 16:27:02,15.08831661,0.0001617,53.216,39.0659,86.1523,273.9654,0.001021,0.00015995,0.0,0 STARLINK-3896,1 52456U 22049F   23048.68544878  .00015995  00000-0  10210-2 0  9991,2 52456  53.2160  39.0659 0001617  86.1523 273.9654 15.08831661 43634,6917.906,95.438,540.89,538.652,0.0
52456.0,STARLINK-3896,PAYLOAD,2023-02-18 05:10:08,15.08839393,0.0001769,53.2166,36.6877,85.7203,274.3991,0.00081728,0.00012743,0.0,0 STARLINK-3896,1 52456U 22049F   23049.21537161  .00012743  00000-0  81728-3 0  9999,2 52456  53.2166  36.6877 0001769  85.7203 274.3991 15.08839393 43878,6917.882,95.438,540.971,538.523,0.0
52456.0,STARLINK-3896,PAYLOAD,2023-02-18 08:20:54,15.08841187,0.0001559,53.2149,36.0915,87.8663,272.2508,0.00083028,0.00012951,0.0,0 STARLINK-3896,1 52456U 22049F   23049.34785101  .00012951  00000-0  83028-3 0  9998,2 52456  53.2149  36.0915 0001559  87.8663 272.2508 15.08841187 43736,6917.877,95.437,540.82,538.663,0.0
52456.0,STARLINK-3896,PAYLOAD,2023-02-19 08:11:40,15.0886407,0.0001612,53.2159,31.6302,86.14,273.9776,0.00086339,0.00013489,0.0,0 STARLINK-3896,1 52456U 22049F   23050.34144390  .00013489  00000-0  86339-3 0  9994,2 52456  53.2159  31.6302 0001612  86.1400 273.9776 15.08864070 43886,6917.807,95.436,540.787,538.557,0.0
52456.0,STARLINK-3896,PAYLOAD,2023-02-19 16:08:35,15.08856827,5.83e-05,53.2154,30.1446,75.5269,284.5788,0.00036061,5.459e-05,0.0,0 STARLINK-3896,1 52456U 22049F   23050.67263840  .00005459  00000-0  36061-3 0  9997,2 52456  53.2154  30.1446 0000583  75.5269 284.5788 15.08856827 44091,6917.829,95.436,540.097,539.291,0.0
52456.0,STARLINK-3896,PAYLOAD,2023-02-20 08:02:27,15.08850552,0.0001539,53.2166,27.1676,101.622,258.4945,0.00014558,2.03e-05,0.0,0 STARLINK-3896,1 52456U 22049F   23051.33503930  .00002030  00000-0  14558-3 0  9997,2 52456  53.2166  27.1676 0001539 101.6220 258.4945 15.08850552 44190,6917.848,95.437,540.778,538.648,0.0
52456.0,STARLINK-3896,PAYLOAD,2023-02-21 04:42:28,15.08843627,0.0001583,53.217,23.3007,107.4705,252.6461,9.8876e-05,1.286e-05,0.0,0 STARLINK-3896,1 52456U 22049F   23052.19616034  .00001286  00000-0  98876-4 0  9990,2 52456  53.2170  23.3007 0001583 107.4705 252.6461 15.08843627 44321,6917.869,95.437,540.829,538.639,0.0
52456.0,STARLINK-3896,PAYLOAD,2023-02-21 07:53:14,15.08845501,0.00016,53.2171,22.7055,108.4753,251.6413,0.00011429,1.532e-05,0.0,0 STARLINK-3896,1 52456U 22049F   23052.32863895  .00001532  00000-0  11429-3 0  9996,2 52456  53.2171  22.7055 0001600 108.4753 251.6413 15.08845501 44185,6917.864,95.437,540.835,538.622,0.0
52456.0,STARLINK-3896,PAYLOAD,2023-02-22 04:33:15,15.08836697,0.0001424,53.2171,18.8412,91.1207,268.9949,1.4105e-05,-6.3e-07,0.0,0 STARLINK-3896,1 52456U 22049F   23053.18976491 -.00000063  00000-0  14105-4 0  9992,2 52456  53.2171  18.8412 0001424  91.1207 268.9949 15.08836697 44477,6917.89,95.438,540.741,538.77,0.0
52456.0,STARLINK-3896,PAYLOAD,2023-02-22 07:44:02,15.08837661,0.0001302,53.2173,18.2494,93.1326,266.9815,-3.8288e-05,-8.97e-06,0.0,0 STARLINK-3896,1 52456U 22049F   23053.32224764 -.00000897  00000-0 -38288-4 0  9991,2 52456  53.2173  18.2494 0001302  93.1326 266.9815 15.08837661 44339,6917.888,95.438,540.653,538.852,0.0
52456.0,STARLINK-3896,PAYLOAD,2023-02-22 22:02:31,15.08829537,0.0001406,53.2178,15.5727,104.1678,255.947,-6.896e-05,-1.385e-05,0.0,0 STARLINK-3896,1 52456U 22049F   23053.91841707 -.00001385  00000-0 -68960-4 0  9991,2 52456  53.2178  15.5727 0001406 104.1678 255.9470 15.08829537 44429,6917.912,95.438,540.75,538.805,0.0
52456.0,STARLINK-3896,PAYLOAD,2023-02-23 07:34:49,15.08844168,0.0001196,53.217,13.7888,88.7638,271.3491,3.5413e-05,2.76e-06,0.0,0 STARLINK-3896,1 52456U 22049F   23054.31584632  .00000276  00000-0  35413-4 0  9990,2 52456  53.2170  13.7888 0001196  88.7638 271.3491 15.08844168 44644,6917.868,95.437,540.56,538.905,0.0
52456.0,STARLINK-3896,PAYLOAD,2023-02-23 21:53:17,15.08842482,0.0001261,53.2165,11.1125,88.7066,271.4071,0.00024756,3.654e-05,0.0,0 STARLINK-3896,1 52456U 22049F   23054.91200837  .00003654  00000-0  24756-3 0  9998,2 52456  53.2165  11.1125 0001261  88.7066 271.4071 15.08842482 44576,6917.873,95.437,540.61,538.865,0.0
52456.0,STARLINK-3896,PAYLOAD,2023-02-24 05:50:12,15.0886005,0.0001212,53.216,9.6256,91.0406,269.0725,0.00049773,7.647e-05,0.0,0 STARLINK-3896,1 52456U 22049F   23055.24319931  .00007647  00000-0  49773-3 0  9993,2 52456  53.2160   9.6256 0001212  91.0406 269.0725 15.08860050 44625,6917.819,95.436,540.523,538.846,0.0
52456.0,STARLINK-3896,PAYLOAD,2023-02-24 20:08:41,15.08840304,0.0001145,53.2157,6.9495,98.788,261.3242,8.6125e-05,1.083e-05,0.0,0 STARLINK-3896,1 52456U 22049F   23055.83936808  .00001083  00000-0  86125-4 0  9997,2 52456  53.2157   6.9495 0001145  98.7880 261.3242 15.08840304 44877,6917.879,95.438,540.537,538.952,0.0
52456.0,STARLINK-3896,PAYLOAD,2023-02-25 05:40:59,15.08846279,0.0001274,53.2156,5.1652,97.2969,262.8168,0.00015659,2.206e-05,0.0,0 STARLINK-3896,1 52456U 22049F   23056.23680473  .00002206  00000-0  15659-3 0  9997,2 52456  53.2156   5.1652 0001274  97.2969 262.8168 15.08846279 44776,6917.861,95.437,540.608,538.845,0.0
52456.0,STARLINK-3896,PAYLOAD,2023-02-25 19:59:28,15.08836552,0.0001423,53.2151,2.4881,105.8641,254.2508,0.00018259,2.619e-05,0.0,0 STARLINK-3896,1 52456U 22049F   23056.83296982  .00002619  00000-0  18259-3 0  9998,2 52456  53.2151   2.4881 0001423 105.8641 254.2508 15.08836552 44860,6917.891,95.438,540.74,538.772,0.0
52456.0,STARLINK-3896,PAYLOAD,2023-02-26 05:31:47,15.08854524,0.0001272,53.2151,0.7042,100.3704,259.7431,0.00099064,0.00015519,0.0,0 STARLINK-3896,1 52456U 22049F   23057.23040757  .00015519  00000-0  99064-3 0  9996,2 52456  53.2151   0.7042 0001272 100.3704 259.7431 15.08854524 45081,6917.836,95.437,540.581,538.821,0.0
52456.0,STARLINK-3896,PAYLOAD,2023-02-26 21:25:38,15.08856335,0.0001116,53.2152,357.7311,104.2027,255.9089,0.00057301,8.847e-05,0.0,0 STARLINK-3896,1 52456U 22049F   23057.89280489  .00008847  00000-0  57301-3 0  9990,2 52456  53.2152 357.7311 0001116 104.2027 255.9089 15.08856335 45184,6917.83,95.437,540.467,538.923,0.0
52456.0,STARLINK-3896,PAYLOAD,2023-02-27 05:22:33,15.08887633,0.0001239,53.2152,356.2434,92.886,267.2274,0.0017605,0.00027878,0.0,0 STARLINK-3896,1 52456U 22049F   23058.22399756  .00027878  00000-0  17605-2 0  9993,2 52456  53.2152 356.2434 0001239  92.8860 267.2274 15.08887633 45230,6917.735,95.435,540.457,538.743,0.0
52456.0,STARLINK-3896,PAYLOAD,2023-02-27 19:41:01,15.0890064,0.0001849,53.2162,353.5676,84.5409,275.5794,0.0038407,0.00061473,0.0,0 STARLINK-3896,1 52456U 22049F   23058.82015726  .00061473  00000-0  38407-2 0  9993,2 52456  53.2162 353.5676 0001849  84.5409 275.5794 15.08900640 45326,6917.695,95.434,540.839,538.281,0.0
52456.0,STARLINK-3896,PAYLOAD,2023-02-28 05:13:19,15.08884812,0.0001796,53.2164,351.7837,70.9438,289.1749,0.002004,0.00031789,0.0,0 STARLINK-3896,1 52456U 22049F   23059.21759230  .00031789  00000-0  20040-2 0  9993,2 52456  53.2164 351.7837 0001796  70.9438 289.1749 15.08884812 45388,6917.743,95.435,540.851,538.366,0.0
52456.0,STARLINK-3896,PAYLOAD,2023-02-28 22:42:36,15.08799261,8.5e-05,53.2155,348.512,127.2706,232.8364,0.00062572,9.674e-05,0.0,0 STARLINK-3896,1 52456U 22049F   23059.94625628  .00009674  00000-0  62572-3 0  9991,2 52456  53.2155 348.5120 0000850 127.2706 232.8364 15.08799261 45494,6918.005,95.44,540.458,539.282,0.0
52456.0,STARLINK-3896,PAYLOAD,2023-03-01 06:39:33,15.08794837,0.0001297,53.2156,347.0253,86.5962,273.5178,0.00029664,4.431e-05,0.0,0 STARLINK-3896,1 52456U 22049F   23060.27746859  .00004431  00000-0  29664-3 0  9990,2 52456  53.2156 347.0253 0001297  86.5962 273.5178 15.08794837 45548,6918.018,95.44,540.781,538.986,0.0
